ONEWEB-0371             
1 49297U 21090U   26115.26975714 -.00000926  00000+0 -23457-2 0  9990
2 49297  87.9159 315.5171 0001884  80.7955 279.3390 13.19713010219472
ONEWEB-0372             
1 49298U 21090V   26115.20734291  .00001840  00000+0  44950-2 0  9993
2 49298  87.9141 285.0137 0001742  94.1731 265.9602 13.20752318222849
ONEWEB-0373             
1 49299U 21090W   26115.23431211  .00000078  00000+0  15889-3 0  9995
2 49299  87.9141 285.0110 0001679  96.5996 263.5328 13.20770719224036
ONEWEB-0374             
1 49300U 21090X   26115.21686478  .00000092  00000+0  21267-3 0  9996
2 49300  87.8928 300.2679 0001934 108.3363 251.7977 13.14504304220601
ONEWEB-0375             
1 49301U 21090Y   26115.22167409 -.00000046  00000+0 -14442-3 0  9994
2 49301  87.9143 285.0035 0001844 111.8006 248.3323 13.20769641223537
ONEWEB-0376             
1 49302U 21090Z   26115.26816998  .00000100  00000+0  21845-3 0  9997
2 49302  87.9163 315.5161 0001873  82.4725 277.6621 13.19725887219478
ONEWEB-0377             
1 49303U 21090AA  26115.20762718  .00000151  00000+0  33829-3 0  9993
2 49303  87.9143 285.0079 0001548  97.1303 263.0006 13.20770328223529
ONEWEB-0378             
1 49304U 21090AB  26115.00243081  .00000006  00000+0 -16542-4 0  9993
2 49304  87.9139 285.0567 0001860  99.3849 260.7494 13.20769854222765
ONEWEB-0379             
1 49305U 21090AC  26115.21211283  .00000030  00000+0  47345-4 0  9997
2 49305  87.8929 300.2804 0001812  94.7647 265.3690 13.14502728220606
ONEWEB-0380             
1 49306U 21090AD  26115.26500026  .00000048  00000+0  88680-4 0  9995
2 49306  87.9157 315.5263 0001622  92.6429 267.4889 13.19724184219443
ONEWEB-0381             
1 49307U 21090AE  26114.90128536  .00000030  00000+0  42320-4 0  9990
2 49307  87.9142 285.0730 0001844 105.5436 254.5901 13.20772969222796
ONEWEB-0382             
1 49308U 21090AF  26115.19168849  .00000100  00000+0  21494-3 0  9990
2 49308  87.9139 285.0111 0001952 103.0037 257.1315 13.20773145222825
ONEWEB-0383             
1 49309U 21090AG  26115.20577371  .00000161  00000+0  40060-3 0  9994
2 49309  87.8937 300.2695 0001914  94.3012 265.8336 13.14502047220631
ONEWEB-0384             
1 49310U 21090AH  26115.18171975  .00000186  00000+0  42523-3 0  9996
2 49310  87.9141 285.0561 0002164 104.7171 255.4202 13.20810430222839
ONEWEB-0385             
1 49311U 21090AJ  26115.18380041  .00000193  00000+0  44267-3 0  9998
2 49311  87.9141 285.0168 0001857  99.9849 260.1494 13.20770395222806
ONEWEB-0386             
1 49312U 21090AK  26115.20115877  .00000055  00000+0  10381-3 0  9992
2 49312  87.9151 285.0017 0001964 100.0436 260.0919 13.20769788222823
