[{"OBJECT_NAME":"ONEWEB-0371","OBJECT_ID":"2021-090U","EPOCH":"2026-04-25T06:28:27.016896","MEAN_MOTION":13.1971301,"ECCENTRICITY":0.0001884,"INCLINATION":87.9159,"RA_OF_ASC_NODE":315.5171,"ARG_OF_PERICENTER":80.7955,"MEAN_ANOMALY":279.339,"EPHEMERIS_TYPE":0,"CLASSIFICATION_TYPE":"U","NORAD_CAT_ID":49297,"ELEMENT_SET_NO":999,"REV_AT_EPOCH":21947,"BSTAR":-0.0023457,"MEAN_MOTION_DOT":-9.26e-06,"MEAN_MOTION_DDOT":0.0},{"OBJECT_NAME":"ONEWEB-0372","OBJECT_ID":"2021-090V","EPOCH":"2026-04-25T04:58:34.427424","MEAN_MOTION":13.20752318,"ECCENTRICITY":0.0001742,"INCLINATION":87.9141,"RA_OF_ASC_NODE":285.0137,"ARG_OF_PERICENTER":94.1731,"MEAN_ANOMALY":265.9602,"EPHEMERIS_TYPE":0,"CLASSIFICATION_TYPE":"U","NORAD_CAT_ID":49298,"ELEMENT_SET_NO":999,"REV_AT_EPOCH":22284,"BSTAR":0.004495,"MEAN_MOTION_DOT":1.84e-05,"MEAN_MOTION_DDOT":0.0},{"OBJECT_NAME":"ONEWEB-0373","OBJECT_ID":"2021-090W","EPOCH":"2026-04-25T05:37:24.566304","MEAN_MOTION":13.20770719,"ECCENTRICITY":0.0001679,"INCLINATION":87.9141,"RA_OF_ASC_NODE":285.011,"ARG_OF_PERICENTER":96.5996,"MEAN_ANOMALY":263.5328,"EPHEMERIS_TYPE":0,"CLASSIFICATION_TYPE":"U","NORAD_CAT_ID":49299,"ELEMENT_SET_NO":999,"REV_AT_EPOCH":22403,"BSTAR":0.00015889000000000002,"MEAN_MOTION_DOT":7.8e-07,"MEAN_MOTION_DDOT":0.0},{"OBJECT_NAME":"ONEWEB-0374","OBJECT_ID":"2021-090X","EPOCH":"2026-04-25T05:12:17.116992","MEAN_MOTION":13.14504304,"ECCENTRICITY":0.0001934,"INCLINATION":87.8928,"RA_OF_ASC_NODE":300.2679,"ARG_OF_PERICENTER":108.3363,"MEAN_ANOMALY":251.7977,"EPHEMERIS_TYPE":0,"CLASSIFICATION_TYPE":"U","NORAD_CAT_ID":49300,"ELEMENT_SET_NO":999,"REV_AT_EPOCH":22060,"BSTAR":0.00021267,"MEAN_MOTION_DOT":9.2e-07,"MEAN_MOTION_DDOT":0.0},{"OBJECT_NAME":"ONEWEB-0375","OBJECT_ID":"2021-090Y","EPOCH":"2026-04-25T05:19:12.641376","MEAN_MOTION":13.20769641,"ECCENTRICITY":0.0001844,"INCLINATION":87.9143,"RA_OF_ASC_NODE":285.0035,"ARG_OF_PERICENTER":111.8006,"MEAN_ANOMALY":248.3323,"EPHEMERIS_TYPE":0,"CLASSIFICATION_TYPE":"U","NORAD_CAT_ID":49301,"ELEMENT_SET_NO":999,"REV_AT_EPOCH":22353,"BSTAR":-0.00014442,"MEAN_MOTION_DOT":-4.6e-07,"MEAN_MOTION_DDOT":0.0},{"OBJECT_NAME":"ONEWEB-0376","OBJECT_ID":"2021-090Z","EPOCH":"2026-04-25T06:26:09.886272","MEAN_MOTION":13.19725887,"ECCENTRICITY":0.0001873,"INCLINATION":87.9163,"RA_OF_ASC_NODE":315.5161,"ARG_OF_PERICENTER":82.4725,"MEAN_ANOMALY":277.6621,"EPHEMERIS_TYPE":0,"CLASSIFICATION_TYPE":"U","NORAD_CAT_ID":49302,"ELEMENT_SET_NO":999,"REV_AT_EPOCH":21947,"BSTAR":0.00021845,"MEAN_MOTION_DOT":1e-06,"MEAN_MOTION_DDOT":0.0},{"OBJECT_NAME":"ONEWEB-0377","OBJECT_ID":"2021-090AA","EPOCH":"2026-04-25T04:58:58.988352","MEAN_MOTION":13.20770328,"ECCENTRICITY":0.0001548,"INCLINATION":87.9143,"RA_OF_ASC_NODE":285.0079,"ARG_OF_PERICENTER":97.1303,"MEAN_ANOMALY":263.0006,"EPHEMERIS_TYPE":0,"CLASSIFICATION_TYPE":"U","NORAD_CAT_ID":49303,"ELEMENT_SET_NO":999,"REV_AT_EPOCH":22352,"BSTAR":0.00033829,"MEAN_MOTION_DOT":1.51e-06,"MEAN_MOTION_DDOT":0.0},{"OBJECT_NAME":"ONEWEB-0378","OBJECT_ID":"2021-090AB","EPOCH":"2026-04-25T00:03:30.021984","MEAN_MOTION":13.20769854,"ECCENTRICITY":0.000186,"INCLINATION":87.9139,"RA_OF_ASC_NODE":285.0567,"ARG_OF_PERICENTER":99.3849,"MEAN_ANOMALY":260.7494,"EPHEMERIS_TYPE":0,"CLASSIFICATION_TYPE":"U","NORAD_CAT_ID":49304,"ELEMENT_SET_NO":999,"REV_AT_EPOCH":22276,"BSTAR":-1.6542000000000002e-05,"MEAN_MOTION_DOT":6e-08,"MEAN_MOTION_DDOT":0.0},{"OBJECT_NAME":"ONEWEB-0379","OBJECT_ID":"2021-090AC","EPOCH":"2026-04-25T05:05:26.548512","MEAN_MOTION":13.14502728,"ECCENTRICITY":0.0001812,"INCLINATION":87.8929,"RA_OF_ASC_NODE":300.2804,"ARG_OF_PERICENTER":94.7647,"MEAN_ANOMALY":265.369,"EPHEMERIS_TYPE":0,"CLASSIFICATION_TYPE":"U","NORAD_CAT_ID":49305,"ELEMENT_SET_NO":999,"REV_AT_EPOCH":22060,"BSTAR":4.7345e-05,"MEAN_MOTION_DOT":3e-07,"MEAN_MOTION_DDOT":0.0},{"OBJECT_NAME":"ONEWEB-0380","OBJECT_ID":"2021-090AD","EPOCH":"2026-04-25T06:21:36.022464","MEAN_MOTION":13.19724184,"ECCENTRICITY":0.0001622,"INCLINATION":87.9157,"RA_OF_ASC_NODE":315.5263,"ARG_OF_PERICENTER":92.6429,"MEAN_ANOMALY":267.4889,"EPHEMERIS_TYPE":0,"CLASSIFICATION_TYPE":"U","NORAD_CAT_ID":49306,"ELEMENT_SET_NO":999,"REV_AT_EPOCH":21944,"BSTAR":8.868000000000001e-05,"MEAN_MOTION_DOT":4.8e-07,"MEAN_MOTION_DDOT":0.0},{"OBJECT_NAME":"ONEWEB-0381","OBJECT_ID":"2021-090AE","EPOCH":"2026-04-24T21:37:51.055104","MEAN_MOTION":13.20772969,"ECCENTRICITY":0.0001844,"INCLINATION":87.9142,"RA_OF_ASC_NODE":285.073,"ARG_OF_PERICENTER":105.5436,"MEAN_ANOMALY":254.5901,"EPHEMERIS_TYPE":0,"CLASSIFICATION_TYPE":"U","NORAD_CAT_ID":49307,"ELEMENT_SET_NO":999,"REV_AT_EPOCH":22279,"BSTAR":4.232e-05,"MEAN_MOTION_DOT":3e-07,"MEAN_MOTION_DDOT":0.0},{"OBJECT_NAME":"ONEWEB-0382","OBJECT_ID":"2021-090AF","EPOCH":"2026-04-25T04:36:01.885536","MEAN_MOTION":13.20773145,"ECCENTRICITY":0.0001952,"INCLINATION":87.9139,"RA_OF_ASC_NODE":285.0111,"ARG_OF_PERICENTER":103.0037,"MEAN_ANOMALY":257.1315,"EPHEMERIS_TYPE":0,"CLASSIFICATION_TYPE":"U","NORAD_CAT_ID":49308,"ELEMENT_SET_NO":999,"REV_AT_EPOCH":22282,"BSTAR":0.00021494,"MEAN_MOTION_DOT":1e-06,"MEAN_MOTION_DDOT":0.0},{"OBJECT_NAME":"ONEWEB-0383","OBJECT_ID":"2021-090AG","EPOCH":"2026-04-25T04:56:18.848544","MEAN_MOTION":13.14502047,"ECCENTRICITY":0.0001914,"INCLINATION":87.8937,"RA_OF_ASC_NODE":300.2695,"ARG_OF_PERICENTER":94.3012,"MEAN_ANOMALY":265.8336,"EPHEMERIS_TYPE":0,"CLASSIFICATION_TYPE":"U","NORAD_CAT_ID":49309,"ELEMENT_SET_NO":999,"REV_AT_EPOCH":22063,"BSTAR":0.00040060000000000003,"MEAN_MOTION_DOT":1.61e-06,"MEAN_MOTION_DDOT":0.0},{"OBJECT_NAME":"ONEWEB-0384","OBJECT_ID":"2021-090AH","EPOCH":"2026-04-25T04:21:40.586400","MEAN_MOTION":13.2081043,"ECCENTRICITY":0.0002164,"INCLINATION":87.9141,"RA_OF_ASC_NODE":285.0561,"ARG_OF_PERICENTER":104.7171,"MEAN_ANOMALY":255.4202,"EPHEMERIS_TYPE":0,"CLASSIFICATION_TYPE":"U","NORAD_CAT_ID":49310,"ELEMENT_SET_NO":999,"REV_AT_EPOCH":22283,"BSTAR":0.00042523,"MEAN_MOTION_DOT":1.86e-06,"MEAN_MOTION_DDOT":0.0},{"OBJECT_NAME":"ONEWEB-0385","OBJECT_ID":"2021-090AJ","EPOCH":"2026-04-25T04:24:40.355424","MEAN_MOTION":13.20770395,"ECCENTRICITY":0.0001857,"INCLINATION":87.9141,"RA_OF_ASC_NODE":285.0168,"ARG_OF_PERICENTER":99.9849,"MEAN_ANOMALY":260.1494,"EPHEMERIS_TYPE":0,"CLASSIFICATION_TYPE":"U","NORAD_CAT_ID":49311,"ELEMENT_SET_NO":999,"REV_AT_EPOCH":22280,"BSTAR":0.00044267000000000004,"MEAN_MOTION_DOT":1.93e-06,"MEAN_MOTION_DDOT":0.0},{"OBJECT_NAME":"ONEWEB-0386","OBJECT_ID":"2021-090AK","EPOCH":"2026-04-25T04:49:40.117728","MEAN_MOTION":13.20769788,"ECCENTRICITY":0.0001964,"INCLINATION":87.9151,"RA_OF_ASC_NODE":285.0017,"ARG_OF_PERICENTER":100.0436,"MEAN_ANOMALY":260.0919,"EPHEMERIS_TYPE":0,"CLASSIFICATION_TYPE":"U","NORAD_CAT_ID":49312,"ELEMENT_SET_NO":999,"REV_AT_EPOCH":22282,"BSTAR":0.00010381,"MEAN_MOTION_DOT":5.5e-07,"MEAN_MOTION_DDOT":0.0}]